{
  "type": "FeatureCollection",
  "features": [
    {
      "type": "Feature",
      "properties": {
        "norad_id": 31307,
        "name": "GALAXY 17 (G-17)",
        "group": "intelsat",
        "lat": 1.1230475117306127,
        "lon": 108.63289519069399,
        "alt_km": 35804.15124654028,
        "timestamp": "2025-12-09T07:41:32.870984+00:00",
        "meta_object_name": "GALAXY 17 (G-17)",
        "meta_object_id": "2007-016B",
        "meta_epoch": "2025-12-08T21:45:39.615264",
        "meta_mean_motion": 1.00272606,
        "meta_eccentricity": 0.0006102,
        "meta_inclination": 2.4902,
        "meta_ra_of_asc_node": 82.3254,
        "meta_arg_of_pericenter": 161.697,
        "meta_mean_anomaly": 75.3016,
        "meta_ephemeris_type": 0,
        "meta_classification_type": "U",
        "meta_norad_cat_id": 31307,
        "meta_element_set_no": 999,
        "meta_rev_at_epoch": 6789,
        "meta_bstar": 0,
        "meta_mean_motion_dot": -2.05e-06,
        "meta_mean_motion_ddot": 0,
        "tle_line1": "1 31307U 07016B   25342.90670851 -.00000205  00000+0  00000+0 0  9996",
        "tle_line2": "2 31307   2.4902  82.3254 0006102 161.6970  75.3016  1.00272606 67892"
      },
      "geometry": {
        "type": "Point",
        "coordinates": [
          108.63289519069399,
          1.1230475117306127
        ]
      }
    },
    {
      "type": "Feature",
      "properties": {
        "norad_id": 31862,
        "name": "DIRECTV 10",
        "group": "intelsat",
        "lat": -0.00410373968081036,
        "lon": 90.91303610400003,
        "alt_km": 35787.10019085994,
        "timestamp": "2025-12-09T07:41:32.870996+00:00",
        "meta_object_name": "DIRECTV 10",
        "meta_object_id": "2007-032A",
        "meta_epoch": "2025-12-08T14:49:37.716960",
        "meta_mean_motion": 1.00272413,
        "meta_eccentricity": 4.123e-05,
        "meta_inclination": 0.0164,
        "meta_ra_of_asc_node": 163.1982,
        "meta_arg_of_pericenter": 60.4028,
        "meta_mean_anomaly": 333.6449,
        "meta_ephemeris_type": 0,
        "meta_classification_type": "U",
        "meta_norad_cat_id": 31862,
        "meta_element_set_no": 999,
        "meta_rev_at_epoch": 4368,
        "meta_bstar": 0,
        "meta_mean_motion_dot": -1.01e-06,
        "meta_mean_motion_ddot": 0,
        "tle_line1": "1 31862U 07032A   25342.61779765 -.00000101  00000+0  00000+0 0  9997",
        "tle_line2": "2 31862   0.0164 163.1982 0000412  60.4028 333.6449  1.00272413 43683"
      },
      "geometry": {
        "type": "Point",
        "coordinates": [
          90.91303610400003,
          -0.00410373968081036
        ]
      }
    },
    {
      "type": "Feature",
      "properties": {
        "norad_id": 32253,
        "name": "INTELSAT 11 (IS-11)",
        "group": "intelsat",
        "lat": -0.3309601067136587,
        "lon": 74.43057767493165,
        "alt_km": 36171.2841704571,
        "timestamp": "2025-12-09T07:41:32.871008+00:00",
        "meta_object_name": "INTELSAT 11 (IS-11)",
        "meta_object_id": "2007-044B",
        "meta_epoch": "2025-12-08T21:36:18.011808",
        "meta_mean_motion": 0.99047748,
        "meta_eccentricity": 0.00091328,
        "meta_inclination": 3.0702,
        "meta_ra_of_asc_node": 81.0168,
        "meta_arg_of_pericenter": 164.3323,
        "meta_mean_anomaly": 39.2157,
        "meta_ephemeris_type": 0,
        "meta_classification_type": "U",
        "meta_norad_cat_id": 32253,
        "meta_element_set_no": 999,
        "meta_rev_at_epoch": 6656,
        "meta_bstar": 0,
        "meta_mean_motion_dot": 7e-07,
        "meta_mean_motion_ddot": 0,
        "tle_line1": "1 32253U 07044B   25342.90020847  .00000070  00000+0  00000+0 0  9991",
        "tle_line2": "2 32253   3.0702  81.0168 0009132 164.3323  39.2157  0.99047748 66568"
      },
      "geometry": {
        "type": "Point",
        "coordinates": [
          74.43057767493165,
          -0.3309601067136587
        ]
      }
    },
    {
      "type": "Feature",
      "properties": {
        "norad_id": 32388,
        "name": "HORIZONS-2",
        "group": "intelsat",
        "lat": 1.283542127520913,
        "lon": 119.86849009289142,
        "alt_km": 35804.658566923266,
        "timestamp": "2025-12-09T07:41:32.871020+00:00",
        "meta_object_name": "HORIZONS-2",
        "meta_object_id": "2007-063B",
        "meta_epoch": "2025-12-08T21:48:46.816416",
        "meta_mean_motion": 1.00270622,
        "meta_eccentricity": 0.00050387,
        "meta_inclination": 2.1115,
        "meta_ra_of_asc_node": 82.9985,
        "meta_arg_of_pericenter": 186.4621,
        "meta_mean_anomaly": 61.8616,
        "meta_ephemeris_type": 0,
        "meta_classification_type": "U",
        "meta_norad_cat_id": 32388,
        "meta_element_set_no": 999,
        "meta_rev_at_epoch": 6590,
        "meta_bstar": 0,
        "meta_mean_motion_dot": -2.52e-06,
        "meta_mean_motion_ddot": 0,
        "tle_line1": "1 32388U 07063B   25342.90887519 -.00000252  00000+0  00000+0 0  9991",
        "tle_line2": "2 32388   2.1115  82.9985 0005038 186.4621  61.8616  1.00270622 65909"
      },
      "geometry": {
        "type": "Point",
        "coordinates": [
          119.86849009289142,
          1.283542127520913
        ]
      }
    },
    {
      "type": "Feature",
      "properties": {
        "norad_id": 32729,
        "name": "DIRECTV 11",
        "group": "intelsat",
        "lat": 0.004838793782572635,
        "lon": 94.50239050942353,
        "alt_km": 35786.56135177844,
        "timestamp": "2025-12-09T07:41:32.871032+00:00",
        "meta_object_name": "DIRECTV 11",
        "meta_object_id": "2008-013A",
        "meta_epoch": "2025-12-08T14:50:30.133248",
        "meta_mean_motion": 1.00272882,
        "meta_eccentricity": 5.266e-05,
        "meta_inclination": 0.0228,
        "meta_ra_of_asc_node": 202.5194,
        "meta_arg_of_pericenter": 2.0786,
        "meta_mean_anomaly": 356.4573,
        "meta_ephemeris_type": 0,
        "meta_classification_type": "U",
        "meta_norad_cat_id": 32729,
        "meta_element_set_no": 999,
        "meta_rev_at_epoch": 4368,
        "meta_bstar": 0,
        "meta_mean_motion_dot": -1.24e-06,
        "meta_mean_motion_ddot": 0,
        "tle_line1": "1 32729U 08013A   25342.61840432 -.00000124  00000+0  00000+0 0  9995",
        "tle_line2": "2 32729   0.0228 202.5194 0000526   2.0786 356.4573  1.00272882 43680"
      },
      "geometry": {
        "type": "Point",
        "coordinates": [
          94.50239050942353,
          0.004838793782572635
        ]
      }
    },
    {
      "type": "Feature",
      "properties": {
        "norad_id": 32951,
        "name": "GALAXY 18 (G-18)",
        "group": "intelsat",
        "lat": 0.02392266351921415,
        "lon": 70.69408031283507,
        "alt_km": 35799.2307992159,
        "timestamp": "2025-12-09T07:41:32.871044+00:00",
        "meta_object_name": "GALAXY 18 (G-18)",
        "meta_object_id": "2008-024A",
        "meta_epoch": "2025-12-08T21:34:48.154944",
        "meta_mean_motion": 1.00272677,
        "meta_eccentricity": 0.00032149,
        "meta_inclination": 0.0142,
        "meta_ra_of_asc_node": 291.9587,
        "meta_arg_of_pericenter": 328.1952,
        "meta_mean_anomaly": 18.4346,
        "meta_ephemeris_type": 0,
        "meta_classification_type": "U",
        "meta_norad_cat_id": 32951,
        "meta_element_set_no": 999,
        "meta_rev_at_epoch": 4394,
        "meta_bstar": 0,
        "meta_mean_motion_dot": 2.7e-07,
        "meta_mean_motion_ddot": 0,
        "tle_line1": "1 32951U 08024A   25342.89916846  .00000027  00000+0  00000+0 0  9998",
        "tle_line2": "2 32951   0.0142 291.9587 0003214 328.1952  18.4346  1.00272677 43948"
      },
      "geometry": {
        "type": "Point",
        "coordinates": [
          70.69408031283507,
          0.02392266351921415
        ]
      }
    },
    {
      "type": "Feature",
      "properties": {
        "norad_id": 33153,
        "name": "INTELSAT 25 (IS-25)",
        "group": "intelsat",
        "lat": 2.1832391373347106,
        "lon": 162.13435160623982,
        "alt_km": 35791.94501365701,
        "timestamp": "2025-12-09T07:41:32.871057+00:00",
        "meta_object_name": "INTELSAT 25 (IS-25)",
        "meta_object_id": "2008-034A",
        "meta_epoch": "2025-12-08T22:00:53.156160",
        "meta_mean_motion": 1.00270375,
        "meta_eccentricity": 0.00054101,
        "meta_inclination": 2.2179,
        "meta_ra_of_asc_node": 82.6875,
        "meta_arg_of_pericenter": 183.9917,
        "meta_mean_anomaly": 109.9627,
        "meta_ephemeris_type": 0,
        "meta_classification_type": "U",
        "meta_norad_cat_id": 33153,
        "meta_element_set_no": 999,
        "meta_rev_at_epoch": 6378,
        "meta_bstar": 0,
        "meta_mean_motion_dot": -2.22e-06,
        "meta_mean_motion_ddot": 0,
        "tle_line1": "1 33153U 08034A   25342.91728190 -.00000222  00000+0  00000+0 0  9998",
        "tle_line2": "2 33153   2.2179  82.6875 0005410 183.9917 109.9627  1.00270375 63785"
      },
      "geometry": {
        "type": "Point",
        "coordinates": [
          162.13435160623982,
          2.1832391373347106
        ]
      }
    }
  ]
}